STARLINK-36529          
1 67457U 26008N   26042.91668981 -.02050063  00000+0 -46519-1 0  9990
2 67457  42.9999 351.2899 0001470 258.9860 138.6644 15.45757412  5659
STARLINK-36528          
1 67458U 26008P   26042.91668981 -.02048269  00000+0 -40088-1 0  9991
2 67458  42.9998 350.9415 0001246 272.0368 266.6957 15.49953143  5674
STARLINK-36546          
1 67459U 26008Q   26042.91668981 -.02069726  00000+0 -55015-1 0  9999
2 67459  43.0001 351.3373 0001382 261.2628 117.0009 15.41163301  5656
STARLINK-36523          
1 67460U 26008R   26042.91668981 -.02075653  00000+0 -53069-1 0  9994
2 67460  43.0003 351.2816 0001236 262.4313 138.2018 15.42326618  5673
STARLINK-36522          
1 67461U 26008S   26042.92663176  .00073211  00000+0  12398-2 0  9992
2 67461  42.9990 351.4590 0001770 253.7120 106.3545 15.50630114  5624
STARLINK-36504          
1 67462U 26008T   26042.91668981 -.02036890  00000+0 -49773-1 0  9993
2 67462  43.0001 351.0718 0001099 263.1140 222.5919 15.43587930  5679
STARLINK-36505          
1 67463U 26008U   26042.91668981 -.02088278  00000+0 -42193-1 0  9990
2 67463  43.0000 351.1231 0001178 272.7781 191.9511 15.49128708  5650
STARLINK-36421          
1 67464U 26008V   26042.92602790  .00070694  00000+0  11978-2 0  9995
2 67464  43.0019 351.4523 0002984 249.8945 110.1594 15.50628265  5627
STARLINK-36437          
1 67465U 26008W   26042.91668981 -.01255399  00000+0 -23263-1 0  9998
2 67465  43.0001 351.0917 0000929 273.5222 203.4302 15.50970557  5651
STARLINK-36520          
1 67466U 26008X   26042.91668981 -.02009562  00000+0 -50516-1 0  9990
2 67466  43.0000 351.3446 0001502 251.8545 122.7364 15.42704201  5659
STARLINK-36425          
1 67467U 26008Y   26042.22926958  .00113281  00000+0  19028-2 0  9990
2 67467  43.0009 355.6901 0002880 249.0503 111.0049 15.50668171  5515
STARLINK-36414          
1 67468U 26008Z   26042.25201223  .00148743  00000+0  24893-2 0  9992
2 67468  43.0000 354.9811 0001619 288.2757  71.7927 15.50624812  5526
