CCSDS_OMM_VERS = 2.0
CREATION_DATE  = 
ORIGINATOR     = 

OBJECT_NAME    = STARLINK-36529
OBJECT_ID      = 2026-008N
CENTER_NAME    = EARTH
REF_FRAME      = TEME
TIME_SYSTEM    = UTC
MEAN_ELEMENT_THEORY = SGP/SGP4

EPOCH          = 2026-02-11T22:00:01.999584
MEAN_MOTION    = 15.45757412
ECCENTRICITY   = .00014701
INCLINATION    = 42.9999
RA_OF_ASC_NODE = 351.2899
ARG_OF_PERICENTER = 258.9860
MEAN_ANOMALY   = 138.6644

EPHEMERIS_TYPE = 0
CLASSIFICATION_TYPE = U
NORAD_CAT_ID   = 67457
ELEMENT_SET_NO = 999
REV_AT_EPOCH   = 565
BSTAR          = -.46519E-1
MEAN_MOTION_DOT = -.2050063E-1
MEAN_MOTION_DDOT = 0

CCSDS_OMM_VERS = 2.0
CREATION_DATE  = 
ORIGINATOR     = 

OBJECT_NAME    = STARLINK-36528
OBJECT_ID      = 2026-008P
CENTER_NAME    = EARTH
REF_FRAME      = TEME
TIME_SYSTEM    = UTC
MEAN_ELEMENT_THEORY = SGP/SGP4

EPOCH          = 2026-02-11T22:00:01.999584
MEAN_MOTION    = 15.49953143
ECCENTRICITY   = .00012464
INCLINATION    = 42.9998
RA_OF_ASC_NODE = 350.9415
ARG_OF_PERICENTER = 272.0368
MEAN_ANOMALY   = 266.6957

EPHEMERIS_TYPE = 0
CLASSIFICATION_TYPE = U
NORAD_CAT_ID   = 67458
ELEMENT_SET_NO = 999
REV_AT_EPOCH   = 567
BSTAR          = -.40088061E-1
MEAN_MOTION_DOT = -.2048269E-1
MEAN_MOTION_DDOT = 0

CCSDS_OMM_VERS = 2.0
CREATION_DATE  = 
ORIGINATOR     = 

OBJECT_NAME    = STARLINK-36546
OBJECT_ID      = 2026-008Q
CENTER_NAME    = EARTH
REF_FRAME      = TEME
TIME_SYSTEM    = UTC
MEAN_ELEMENT_THEORY = SGP/SGP4

EPOCH          = 2026-02-11T22:00:01.999584
MEAN_MOTION    = 15.41163301
ECCENTRICITY   = .00013822
INCLINATION    = 43.0001
RA_OF_ASC_NODE = 351.3373
ARG_OF_PERICENTER = 261.2628
MEAN_ANOMALY   = 117.0009

EPHEMERIS_TYPE = 0
CLASSIFICATION_TYPE = U
NORAD_CAT_ID   = 67459
ELEMENT_SET_NO = 999
REV_AT_EPOCH   = 565
BSTAR          = -.55014838E-1
MEAN_MOTION_DOT = -.2069726E-1
MEAN_MOTION_DDOT = 0

CCSDS_OMM_VERS = 2.0
CREATION_DATE  = 
ORIGINATOR     = 

OBJECT_NAME    = STARLINK-36523
OBJECT_ID      = 2026-008R
CENTER_NAME    = EARTH
REF_FRAME      = TEME
TIME_SYSTEM    = UTC
MEAN_ELEMENT_THEORY = SGP/SGP4

EPOCH          = 2026-02-11T22:00:01.999584
MEAN_MOTION    = 15.42326618
ECCENTRICITY   = .00012369
INCLINATION    = 43.0003
RA_OF_ASC_NODE = 351.2816
ARG_OF_PERICENTER = 262.4313
MEAN_ANOMALY   = 138.2018

EPHEMERIS_TYPE = 0
CLASSIFICATION_TYPE = U
NORAD_CAT_ID   = 67460
ELEMENT_SET_NO = 999
REV_AT_EPOCH   = 567
BSTAR          = -.53069102E-1
MEAN_MOTION_DOT = -.2075653E-1
MEAN_MOTION_DDOT = 0

CCSDS_OMM_VERS = 2.0
CREATION_DATE  = 
ORIGINATOR     = 

OBJECT_NAME    = STARLINK-36522
OBJECT_ID      = 2026-008S
CENTER_NAME    = EARTH
REF_FRAME      = TEME
TIME_SYSTEM    = UTC
MEAN_ELEMENT_THEORY = SGP/SGP4

EPOCH          = 2026-02-11T22:14:20.984064
MEAN_MOTION    = 15.50630114
ECCENTRICITY   = .00017707
INCLINATION    = 42.9990
RA_OF_ASC_NODE = 351.4590
ARG_OF_PERICENTER = 253.7120
MEAN_ANOMALY   = 106.3545

EPHEMERIS_TYPE = 0
CLASSIFICATION_TYPE = U
NORAD_CAT_ID   = 67461
ELEMENT_SET_NO = 999
REV_AT_EPOCH   = 562
BSTAR          = .12398256E-2
MEAN_MOTION_DOT = .73211E-3
MEAN_MOTION_DDOT = 0

CCSDS_OMM_VERS = 2.0
CREATION_DATE  = 
ORIGINATOR     = 

OBJECT_NAME    = STARLINK-36504
OBJECT_ID      = 2026-008T
CENTER_NAME    = EARTH
REF_FRAME      = TEME
TIME_SYSTEM    = UTC
MEAN_ELEMENT_THEORY = SGP/SGP4

EPOCH          = 2026-02-11T22:00:01.999584
MEAN_MOTION    = 15.43587930
ECCENTRICITY   = .00010996
INCLINATION    = 43.0001
RA_OF_ASC_NODE = 351.0718
ARG_OF_PERICENTER = 263.1140
MEAN_ANOMALY   = 222.5919

EPHEMERIS_TYPE = 0
CLASSIFICATION_TYPE = U
NORAD_CAT_ID   = 67462
ELEMENT_SET_NO = 999
REV_AT_EPOCH   = 567
BSTAR          = -.49772793E-1
MEAN_MOTION_DOT = -.203689E-1
MEAN_MOTION_DDOT = 0

CCSDS_OMM_VERS = 2.0
CREATION_DATE  = 
ORIGINATOR     = 

OBJECT_NAME    = STARLINK-36505
OBJECT_ID      = 2026-008U
CENTER_NAME    = EARTH
REF_FRAME      = TEME
TIME_SYSTEM    = UTC
MEAN_ELEMENT_THEORY = SGP/SGP4

EPOCH          = 2026-02-11T22:00:01.999584
MEAN_MOTION    = 15.49128708
ECCENTRICITY   = .00011787
INCLINATION    = 43.0000
RA_OF_ASC_NODE = 351.1231
ARG_OF_PERICENTER = 272.7781
MEAN_ANOMALY   = 191.9511

EPHEMERIS_TYPE = 0
CLASSIFICATION_TYPE = U
NORAD_CAT_ID   = 67463
ELEMENT_SET_NO = 999
REV_AT_EPOCH   = 565
BSTAR          = -.42193433E-1
MEAN_MOTION_DOT = -.2088278E-1
MEAN_MOTION_DDOT = 0

CCSDS_OMM_VERS = 2.0
CREATION_DATE  = 
ORIGINATOR     = 

OBJECT_NAME    = STARLINK-36421
OBJECT_ID      = 2026-008V
CENTER_NAME    = EARTH
REF_FRAME      = TEME
TIME_SYSTEM    = UTC
MEAN_ELEMENT_THEORY = SGP/SGP4

EPOCH          = 2026-02-11T22:13:28.810560
MEAN_MOTION    = 15.50628265
ECCENTRICITY   = .00029841
INCLINATION    = 43.0019
RA_OF_ASC_NODE = 351.4523
ARG_OF_PERICENTER = 249.8945
MEAN_ANOMALY   = 110.1594

EPHEMERIS_TYPE = 0
CLASSIFICATION_TYPE = U
NORAD_CAT_ID   = 67464
ELEMENT_SET_NO = 999
REV_AT_EPOCH   = 562
BSTAR          = .11977728E-2
MEAN_MOTION_DOT = .70694E-3
MEAN_MOTION_DDOT = 0

CCSDS_OMM_VERS = 2.0
CREATION_DATE  = 
ORIGINATOR     = 

OBJECT_NAME    = STARLINK-36437
OBJECT_ID      = 2026-008W
CENTER_NAME    = EARTH
REF_FRAME      = TEME
TIME_SYSTEM    = UTC
MEAN_ELEMENT_THEORY = SGP/SGP4

EPOCH          = 2026-02-11T22:00:01.999584
MEAN_MOTION    = 15.50970557
ECCENTRICITY   = .0000929
INCLINATION    = 43.0001
RA_OF_ASC_NODE = 351.0917
ARG_OF_PERICENTER = 273.5222
MEAN_ANOMALY   = 203.4302

EPHEMERIS_TYPE = 0
CLASSIFICATION_TYPE = U
NORAD_CAT_ID   = 67465
ELEMENT_SET_NO = 999
REV_AT_EPOCH   = 565
BSTAR          = -.23262878E-1
MEAN_MOTION_DOT = -.1255399E-1
MEAN_MOTION_DDOT = 0

CCSDS_OMM_VERS = 2.0
CREATION_DATE  = 
ORIGINATOR     = 

OBJECT_NAME    = STARLINK-36520
OBJECT_ID      = 2026-008X
CENTER_NAME    = EARTH
REF_FRAME      = TEME
TIME_SYSTEM    = UTC
MEAN_ELEMENT_THEORY = SGP/SGP4

EPOCH          = 2026-02-11T22:00:01.999584
MEAN_MOTION    = 15.42704201
ECCENTRICITY   = .00015023
INCLINATION    = 43.0000
RA_OF_ASC_NODE = 351.3446
ARG_OF_PERICENTER = 251.8545
MEAN_ANOMALY   = 122.7364

EPHEMERIS_TYPE = 0
CLASSIFICATION_TYPE = U
NORAD_CAT_ID   = 67466
ELEMENT_SET_NO = 999
REV_AT_EPOCH   = 565
BSTAR          = -.50515985E-1
MEAN_MOTION_DOT = -.2009562E-1
MEAN_MOTION_DDOT = 0

CCSDS_OMM_VERS = 2.0
CREATION_DATE  = 
ORIGINATOR     = 

OBJECT_NAME    = STARLINK-36425
OBJECT_ID      = 2026-008Y
CENTER_NAME    = EARTH
REF_FRAME      = TEME
TIME_SYSTEM    = UTC
MEAN_ELEMENT_THEORY = SGP/SGP4

EPOCH          = 2026-02-11T05:30:08.891712
MEAN_MOTION    = 15.50668171
ECCENTRICITY   = .00028801
INCLINATION    = 43.0009
RA_OF_ASC_NODE = 355.6901
ARG_OF_PERICENTER = 249.0503
MEAN_ANOMALY   = 111.0049

EPHEMERIS_TYPE = 0
CLASSIFICATION_TYPE = U
NORAD_CAT_ID   = 67467
ELEMENT_SET_NO = 999
REV_AT_EPOCH   = 551
BSTAR          = .19027554E-2
MEAN_MOTION_DOT = .113281E-2
MEAN_MOTION_DDOT = 0

CCSDS_OMM_VERS = 2.0
CREATION_DATE  = 
ORIGINATOR     = 

OBJECT_NAME    = STARLINK-36414
OBJECT_ID      = 2026-008Z
CENTER_NAME    = EARTH
REF_FRAME      = TEME
TIME_SYSTEM    = UTC
MEAN_ELEMENT_THEORY = SGP/SGP4

EPOCH          = 2026-02-11T06:02:53.856672
MEAN_MOTION    = 15.50624812
ECCENTRICITY   = .00016197
INCLINATION    = 43.0000
RA_OF_ASC_NODE = 354.9811
ARG_OF_PERICENTER = 288.2757
MEAN_ANOMALY   = 71.7927

EPHEMERIS_TYPE = 0
CLASSIFICATION_TYPE = U
NORAD_CAT_ID   = 67468
ELEMENT_SET_NO = 999
REV_AT_EPOCH   = 552
BSTAR          = .24892734E-2
MEAN_MOTION_DOT = .148743E-2
MEAN_MOTION_DDOT = 0

